STARLINK-11394 [DTC]    
1 62218U 24231A   25288.92025977  .00169897  00000+0  13742-2 0  9995
2 62218  53.1554  94.9433 0000900  77.5875 282.5244 15.69788788 50676
STARLINK-11490 [DTC]    
1 62219U 24231B   25288.92516613  .00102965  00000+0  84292-3 0  9990
2 62219  53.1556  94.9750 0000726  88.7491 271.3610 15.69747269 50677
STARLINK-11466 [DTC]    
1 62220U 24231C   25288.93497628  .00097515  00000+0  79883-3 0  9991
2 62220  53.1560  95.0394 0000649  96.2773 263.8319 15.69755171 50674
STARLINK-11468 [DTC]    
1 62221U 24231D   25288.94478821  .00185804  00000+0  14996-2 0  9999
2 62221  53.1552  95.1033 0000848  85.9793 274.1322 15.69786502 50676
STARLINK-11488 [DTC]    
1 62222U 24231E   25288.93007619  .00274914  00000+0  21906-2 0  9992
2 62222  53.1558  95.0063 0000915  89.5982 270.5141 15.69808826 50673
STARLINK-11483 [DTC]    
1 62223U 24231F   25288.95939856  .00213476  00000+0  17150-2 0  9994
2 62223  53.1562  94.4656 0000489 112.0621 248.0449 15.69806547 50688
STARLINK-11492 [DTC]    
1 62224U 24231G   25288.93988220  .00213235  00000+0  17134-2 0  9997
2 62224  53.1557  95.0827 0000662  89.5620 270.5473 15.69803372 50679
STARLINK-11471 [DTC]    
1 62225U 24231H   25288.96430880  .00123632  00000+0  10078-2 0  9996
2 62225  53.1558  94.5092 0000836  75.7904 284.3207 15.69767186 50685
STARLINK-11475 [DTC]    
1 62226U 24231J   25289.16022181  .00288933  00000+0  22979-2 0  9990
2 62226  53.1550  93.5869 0001067  64.1299 295.9829 15.69811553 50715
STARLINK-11469 [DTC]    
1 62227U 24231K   25288.91537212  .00168793  00000+0  13655-2 0  9991
2 62227  53.1553  94.9061 0000848 103.2000 256.9112 15.69788858 50677
STARLINK-11476 [DTC]    
1 62228U 24231L   25288.95449463  .00204578  00000+0  16461-2 0  9996
2 62228  53.1552  94.4297 0000675  73.8521 286.2571 15.69797868 50699
STARLINK-11485 [DTC]    
1 62229U 24231M   25288.97411676  .00207708  00000+0  16705-2 0  9993
2 62229  53.1554  94.5583 0000719  98.9020 261.2080 15.69799610 50686
STARLINK-11481 [DTC]    
1 62230U 24231N   25288.94969161  .00185953  00000+0  15007-2 0  9990
2 62230  53.1551  95.1309 0000703  89.9550 270.1548 15.69788110 50679
STARLINK-32650          
1 62231U 24231P   25289.06851649  .00041190  00000+0  13946-2 0  9990
2 62231  53.1610 171.5653 0000954  85.3243 274.7867 15.30211977 49621
STARLINK-32636          
1 62232U 24231Q   25289.09373031  .00030909  00000+0  10510-2 0  9998
2 62232  53.1573 171.0160 0001321  82.5269 277.5881 15.30212697 49632
STARLINK-32643          
1 62233U 24231R   25288.93688697  .00041102  00000+0  10310-2 0  9993
2 62233  53.1544 159.3840 0001755  96.4341 263.6864 15.39650429 49771
