[{"OBJECT_NAME":"STARLINK-11394 [DTC]","OBJECT_ID":"2024-231A","EPOCH":"2025-10-15T22:05:10.444128","MEAN_MOTION":15.69788788,"ECCENTRICITY":9.0e-5,"INCLINATION":53.1554,"RA_OF_ASC_NODE":94.9433,"ARG_OF_PERICENTER":77.5875,"MEAN_ANOMALY":282.5244,"EPHEMERIS_TYPE":0,"CLASSIFICATION_TYPE":"U","NORAD_CAT_ID":62218,"ELEMENT_SET_NO":999,"REV_AT_EPOCH":5067,"BSTAR":0.0013742,"MEAN_MOTION_DOT":0.00169897,"MEAN_MOTION_DDOT":0},{"OBJECT_NAME":"STARLINK-11490 [DTC]","OBJECT_ID":"2024-231B","EPOCH":"2025-10-15T22:12:14.353632","MEAN_MOTION":15.69747269,"ECCENTRICITY":7.26e-5,"INCLINATION":53.1556,"RA_OF_ASC_NODE":94.975,"ARG_OF_PERICENTER":88.7491,"MEAN_ANOMALY":271.361,"EPHEMERIS_TYPE":0,"CLASSIFICATION_TYPE":"U","NORAD_CAT_ID":62219,"ELEMENT_SET_NO":999,"REV_AT_EPOCH":5067,"BSTAR":0.00084292,"MEAN_MOTION_DOT":0.00102965,"MEAN_MOTION_DDOT":0},{"OBJECT_NAME":"STARLINK-11466 [DTC]","OBJECT_ID":"2024-231C","EPOCH":"2025-10-15T22:26:21.950592","MEAN_MOTION":15.69755171,"ECCENTRICITY":6.49e-5,"INCLINATION":53.156,"RA_OF_ASC_NODE":95.0394,"ARG_OF_PERICENTER":96.2773,"MEAN_ANOMALY":263.8319,"EPHEMERIS_TYPE":0,"CLASSIFICATION_TYPE":"U","NORAD_CAT_ID":62220,"ELEMENT_SET_NO":999,"REV_AT_EPOCH":5067,"BSTAR":0.00079883,"MEAN_MOTION_DOT":0.00097515,"MEAN_MOTION_DDOT":0},{"OBJECT_NAME":"STARLINK-11468 [DTC]","OBJECT_ID":"2024-231D","EPOCH":"2025-10-15T22:40:29.701344","MEAN_MOTION":15.69786502,"ECCENTRICITY":8.48e-5,"INCLINATION":53.1552,"RA_OF_ASC_NODE":95.1033,"ARG_OF_PERICENTER":85.9793,"MEAN_ANOMALY":274.1322,"EPHEMERIS_TYPE":0,"CLASSIFICATION_TYPE":"U","NORAD_CAT_ID":62221,"ELEMENT_SET_NO":999,"REV_AT_EPOCH":5067,"BSTAR":0.0014996,"MEAN_MOTION_DOT":0.00185804,"MEAN_MOTION_DDOT":0},{"OBJECT_NAME":"STARLINK-11488 [DTC]","OBJECT_ID":"2024-231E","EPOCH":"2025-10-15T22:19:18.582816","MEAN_MOTION":15.69808826,"ECCENTRICITY":9.15e-5,"INCLINATION":53.1558,"RA_OF_ASC_NODE":95.0063,"ARG_OF_PERICENTER":89.5982,"MEAN_ANOMALY":270.5141,"EPHEMERIS_TYPE":0,"CLASSIFICATION_TYPE":"U","NORAD_CAT_ID":62222,"ELEMENT_SET_NO":999,"REV_AT_EPOCH":5067,"BSTAR":0.0021906,"MEAN_MOTION_DOT":0.00274914,"MEAN_MOTION_DDOT":0},{"OBJECT_NAME":"STARLINK-11483 [DTC]","OBJECT_ID":"2024-231F","EPOCH":"2025-10-15T23:01:32.035584","MEAN_MOTION":15.69806547,"ECCENTRICITY":4.89e-5,"INCLINATION":53.1562,"RA_OF_ASC_NODE":94.4656,"ARG_OF_PERICENTER":112.0621,"MEAN_ANOMALY":248.0449,"EPHEMERIS_TYPE":0,"CLASSIFICATION_TYPE":"U","NORAD_CAT_ID":62223,"ELEMENT_SET_NO":999,"REV_AT_EPOCH":5068,"BSTAR":0.001715,"MEAN_MOTION_DOT":0.00213476,"MEAN_MOTION_DDOT":0},{"OBJECT_NAME":"STARLINK-11492 [DTC]","OBJECT_ID":"2024-231G","EPOCH":"2025-10-15T22:33:25.822080","MEAN_MOTION":15.69803372,"ECCENTRICITY":6.62e-5,"INCLINATION":53.1557,"RA_OF_ASC_NODE":95.0827,"ARG_OF_PERICENTER":89.562,"MEAN_ANOMALY":270.5473,"EPHEMERIS_TYPE":0,"CLASSIFICATION_TYPE":"U","NORAD_CAT_ID":62224,"ELEMENT_SET_NO":999,"REV_AT_EPOCH":5067,"BSTAR":0.0017134,"MEAN_MOTION_DOT":0.00213235,"MEAN_MOTION_DDOT":0},{"OBJECT_NAME":"STARLINK-11471 [DTC]","OBJECT_ID":"2024-231H","EPOCH":"2025-10-15T23:08:36.280320","MEAN_MOTION":15.69767186,"ECCENTRICITY":8.36e-5,"INCLINATION":53.1558,"RA_OF_ASC_NODE":94.5092,"ARG_OF_PERICENTER":75.7904,"MEAN_ANOMALY":284.3207,"EPHEMERIS_TYPE":0,"CLASSIFICATION_TYPE":"U","NORAD_CAT_ID":62225,"ELEMENT_SET_NO":999,"REV_AT_EPOCH":5068,"BSTAR":0.0010078,"MEAN_MOTION_DOT":0.00123632,"MEAN_MOTION_DDOT":0},{"OBJECT_NAME":"STARLINK-11475 [DTC]","OBJECT_ID":"2024-231J","EPOCH":"2025-10-16T03:50:43.164384","MEAN_MOTION":15.69811553,"ECCENTRICITY":0.0001067,"INCLINATION":53.155,"RA_OF_ASC_NODE":93.5869,"ARG_OF_PERICENTER":64.1299,"MEAN_ANOMALY":295.9829,"EPHEMERIS_TYPE":0,"CLASSIFICATION_TYPE":"U","NORAD_CAT_ID":62226,"ELEMENT_SET_NO":999,"REV_AT_EPOCH":5071,"BSTAR":0.0022979,"MEAN_MOTION_DOT":0.00288933,"MEAN_MOTION_DDOT":0},{"OBJECT_NAME":"STARLINK-11469 [DTC]","OBJECT_ID":"2024-231K","EPOCH":"2025-10-15T21:58:08.151168","MEAN_MOTION":15.69788858,"ECCENTRICITY":8.48e-5,"INCLINATION":53.1553,"RA_OF_ASC_NODE":94.9061,"ARG_OF_PERICENTER":103.2,"MEAN_ANOMALY":256.9112,"EPHEMERIS_TYPE":0,"CLASSIFICATION_TYPE":"U","NORAD_CAT_ID":62227,"ELEMENT_SET_NO":999,"REV_AT_EPOCH":5067,"BSTAR":0.0013655,"MEAN_MOTION_DOT":0.00168793,"MEAN_MOTION_DDOT":0},{"OBJECT_NAME":"STARLINK-11476 [DTC]","OBJECT_ID":"2024-231L","EPOCH":"2025-10-15T22:54:28.336032","MEAN_MOTION":15.69797868,"ECCENTRICITY":6.75e-5,"INCLINATION":53.1552,"RA_OF_ASC_NODE":94.4297,"ARG_OF_PERICENTER":73.8521,"MEAN_ANOMALY":286.2571,"EPHEMERIS_TYPE":0,"CLASSIFICATION_TYPE":"U","NORAD_CAT_ID":62228,"ELEMENT_SET_NO":999,"REV_AT_EPOCH":5069,"BSTAR":0.0016461,"MEAN_MOTION_DOT":0.00204578,"MEAN_MOTION_DDOT":0},{"OBJECT_NAME":"STARLINK-11485 [DTC]","OBJECT_ID":"2024-231M","EPOCH":"2025-10-15T23:22:43.688064","MEAN_MOTION":15.6979961,"ECCENTRICITY":7.19e-5,"INCLINATION":53.1554,"RA_OF_ASC_NODE":94.5583,"ARG_OF_PERICENTER":98.902,"MEAN_ANOMALY":261.208,"EPHEMERIS_TYPE":0,"CLASSIFICATION_TYPE":"U","NORAD_CAT_ID":62229,"ELEMENT_SET_NO":999,"REV_AT_EPOCH":5068,"BSTAR":0.0016705,"MEAN_MOTION_DOT":0.00207708,"MEAN_MOTION_DDOT":0},{"OBJECT_NAME":"STARLINK-11481 [DTC]","OBJECT_ID":"2024-231N","EPOCH":"2025-10-15T22:47:33.355104","MEAN_MOTION":15.6978811,"ECCENTRICITY":7.03e-5,"INCLINATION":53.1551,"RA_OF_ASC_NODE":95.1309,"ARG_OF_PERICENTER":89.955,"MEAN_ANOMALY":270.1548,"EPHEMERIS_TYPE":0,"CLASSIFICATION_TYPE":"U","NORAD_CAT_ID":62230,"ELEMENT_SET_NO":999,"REV_AT_EPOCH":5067,"BSTAR":0.0015007,"MEAN_MOTION_DOT":0.00185953,"MEAN_MOTION_DDOT":0},{"OBJECT_NAME":"STARLINK-32650","OBJECT_ID":"2024-231P","EPOCH":"2025-10-16T01:38:39.824736","MEAN_MOTION":15.30211977,"ECCENTRICITY":9.54e-5,"INCLINATION":53.161,"RA_OF_ASC_NODE":171.5653,"ARG_OF_PERICENTER":85.3243,"MEAN_ANOMALY":274.7867,"EPHEMERIS_TYPE":0,"CLASSIFICATION_TYPE":"U","NORAD_CAT_ID":62231,"ELEMENT_SET_NO":999,"REV_AT_EPOCH":4962,"BSTAR":0.0013946,"MEAN_MOTION_DOT":0.0004119,"MEAN_MOTION_DDOT":0},{"OBJECT_NAME":"STARLINK-32636","OBJECT_ID":"2024-231Q","EPOCH":"2025-10-16T02:14:58.298784","MEAN_MOTION":15.30212697,"ECCENTRICITY":0.0001321,"INCLINATION":53.1573,"RA_OF_ASC_NODE":171.016,"ARG_OF_PERICENTER":82.5269,"MEAN_ANOMALY":277.5881,"EPHEMERIS_TYPE":0,"CLASSIFICATION_TYPE":"U","NORAD_CAT_ID":62232,"ELEMENT_SET_NO":999,"REV_AT_EPOCH":4963,"BSTAR":0.001051,"MEAN_MOTION_DOT":0.00030909,"MEAN_MOTION_DDOT":0},{"OBJECT_NAME":"STARLINK-32643","OBJECT_ID":"2024-231R","EPOCH":"2025-10-15T22:29:07.034208","MEAN_MOTION":15.39650429,"ECCENTRICITY":0.0001755,"INCLINATION":53.1544,"RA_OF_ASC_NODE":159.384,"ARG_OF_PERICENTER":96.4341,"MEAN_ANOMALY":263.6864,"EPHEMERIS_TYPE":0,"CLASSIFICATION_TYPE":"U","NORAD_CAT_ID":62233,"ELEMENT_SET_NO":999,"REV_AT_EPOCH":4977,"BSTAR":0.001031,"MEAN_MOTION_DOT":0.00041102,"MEAN_MOTION_DDOT":0}]
